STARLINK-36664          
1 68965U 26099Q   26197.83278975  .00015395  00000+0  46590-3 0  9993
2 68965  53.1600  22.7051 0001083  88.9832 271.1295 15.34396282 11820
STARLINK-36402          
1 68966U 26099R   26197.89582366  .00015028  00000+0  45507-3 0  9992
2 68966  53.1598  22.3964 0001291  88.1432 271.9718 15.34396335 11833
STARLINK-36671          
1 68967U 26099S   26197.88232689  .00010346  00000+0  32534-3 0  9996
2 68967  53.1578  22.2939 0001367  90.9692 269.1467 15.33560629 11834
STARLINK-36665          
1 68968U 26099T   26197.89161243  .00011781  00000+0  35927-3 0  9998
2 68968  53.1597  22.3622 0001027 103.7494 256.3623 15.34400231 11837
STARLINK-36303          
1 68969U 26099U   26197.88087534  .00007165  00000+0  22891-3 0  9995
2 68969  53.1589  22.2862 0001368 102.2750 257.8406 15.33558441 11832
STARLINK-37257          
1 68970U 26099V   26197.88740619  .00011848  00000+0  36123-3 0  9993
2 68970  53.1590  22.3406 0001272  90.8239 269.2909 15.34401849 11834
STARLINK-37367          
1 68971U 26099W   26197.88530190  .00008301  00000+0  25652-3 0  9990
2 68971  53.1584  22.3358 0001232  79.8291 280.2851 15.34404317 11837
STARLINK-37259          
1 68972U 26099X   26197.88319786  .00012676  00000+0  38559-3 0  9997
2 68972  53.1592  22.3244 0001258  91.5043 268.6103 15.34406628 11832
STARLINK-37387          
1 68973U 26099Y   26197.66885450  .00012881  00000+0  39164-3 0  9991
2 68973  53.1581  23.1217 0001502 101.1845 258.9326 15.34405972 11807
STARLINK-37362          
1 68974U 26099Z   26197.94622909  .00012332  00000+0  37539-3 0  9996
2 68974  53.1581  22.0055 0001283  88.1661 271.9489 15.34409047 11848
STARLINK-36667          
1 68975U 26099AA  26197.74871725  .00006989  00000+0  21781-3 0  9990
2 68975  53.1586  22.8938 0001107  86.0519 274.0610 15.34397842 11812
STARLINK-36735          
1 68976U 26099AB  26197.81174830  .00007233  00000+0  22501-3 0  9996
2 68976  53.1584  22.5737 0001147  91.7620 268.3514 15.34398684 11820
STARLINK-37371          
1 68977U 26099AC  26197.67938646  .00024407  00000+0  73056-3 0  9997
2 68977  53.1593  23.1620 0001286  88.7981 271.3168 15.34425095 11803
STARLINK-37293          
1 68978U 26099AD  26197.67726856  .00015604  00000+0  47200-3 0  9997
2 68978  53.1584  23.1553 0001158 102.8263 257.2869 15.34399715 11808
STARLINK-36248          
1 68979U 26099AE  26197.67516562  .00015603  00000+0  47189-3 0  9994
2 68979  53.1592  23.1492 0001157  87.2015 272.9120 15.34404274 11801
PEARL-1B                
1 68980U 26100A   26197.51282145  .00000936  00000+0  10106-3 0  9991
2 68980  97.7331  94.2838 0008685  57.1636 303.0417 14.90668327 11053
IRIDE-MS2-HEO-7         
1 68981U 26100B   26198.15883588  .00000550  00000+0  61059-4 0  9997
2 68981  97.7326  94.9724 0006395  58.1674 302.0166 14.91081384 11163
IRIDE-MS2-HEO-10        
1 68982U 26100C   26198.15144822  .00000610  00000+0  66840-4 0  9999
2 68982  97.7299  94.9602 0005710  65.7554 294.4260 14.91233413 11160
IRIDE-MS2-HEO-11        
1 68983U 26100D   26198.14430815  .00000674  00000+0  73452-4 0  9996
2 68983  97.7348  95.0083 0004734  72.4773 287.6962 14.91146884 11162
IRIDE-MS2-HEO-12        
1 68984U 26100E   26198.15353549  .00000565  00000+0  62508-4 0  9995
2 68984  97.7305  94.9623 0005598  66.0534 294.1270 14.91098482 11162
IRIDE-MS2-HEO-13        
1 68985U 26100F   26198.12526215  .00001928  00000+0  19724-3 0  9990
2 68985  97.7336  95.0228 0003131  52.8022 307.3482 14.91671992 11161
IRIDE-MS2-HEO-14        
1 68986U 26100G   26197.71909571  .00000911  00000+0  96257-4 0  9993
2 68986  97.7327  94.6265 0003317  42.8744 317.2733 14.91615929 11105
IRIDE-MS2-HEO-15        
1 68987U 26100H   26197.71916633  .00000808  00000+0  85460-4 0  9990
2 68987  97.7304  94.6068 0002824  60.9770 299.1732 14.91882514 11107
FOREST-17 (TELPERION)   
1 68988U 26100J   26197.23574743  .00000446  00000+0  50323-4 0  9998
2 68988  97.7309  94.0145 0008313  71.4449 288.7672 14.91294853 11023
CAS500-2 RIDESHARE OBJE*
1 68989U 26100K   26197.69911240  .00000813  00000+0  87908-4 0  9993
2 68989  97.7358  94.5230 0007283  48.4931 311.6912 14.90966789 11096
PEARL-1A                
1 68990U 26100L   26198.02904270  .00000551  00000+0  61170-4 0  9990
2 68990  97.7276  94.7939 0006886  70.4652 289.7310 14.91060203 11148
YAM-11                  
1 68991U 26100M   26197.72565279  .00000818  00000+0  89195-4 0  9992
2 68991  97.7423  94.4683 0009640 356.1454   3.9688 14.90580350 11098
YAM-16                  
1 68992U 26100N   26198.14004756  .00000795  00000+0  84921-4 0  9994
2 68992  97.7333  95.0039 0004640  57.9129 302.2540 14.91518410 11160
YAM-13                  
1 68993U 26100P   26197.94974617  .00000671  00000+0  74441-4 0  9993
2 68993  97.7334  94.7916 0009439 352.8717   7.2365 14.90413395 11132
NULINK-2                
1 68994U 26100Q   26198.15321604  .00000441  00000+0  48243-4 0  9996
2 68994  97.7301  95.1103 0001176 128.1673 231.9653 14.92643209 11176
