OBJECT_NAME,OBJECT_ID,EPOCH,MEAN_MOTION,ECCENTRICITY,INCLINATION,RA_OF_ASC_NODE,ARG_OF_PERICENTER,MEAN_ANOMALY,EPHEMERIS_TYPE,CLASSIFICATION_TYPE,NORAD_CAT_ID,ELEMENT_SET_NO,REV_AT_EPOCH,BSTAR,MEAN_MOTION_DOT,MEAN_MOTION_DDOT
STARLINK-36664,2026-099Q,2026-07-16T19:59:13.034400,15.34396282,.0001083,53.1600,22.7051,88.9832,271.1295,0,U,68965,999,1182,.4659E-3,.15395E-3,0
STARLINK-36402,2026-099R,2026-07-16T21:29:59.164224,15.34396335,.0001291,53.1598,22.3964,88.1432,271.9718,0,U,68966,999,1183,.45507E-3,.15028E-3,0
STARLINK-36671,2026-099S,2026-07-16T21:10:33.043296,15.33560629,.0001367,53.1578,22.2939,90.9692,269.1467,0,U,68967,999,1183,.32534E-3,.10346E-3,0
STARLINK-36665,2026-099T,2026-07-16T21:23:55.313952,15.34400231,.0001027,53.1597,22.3622,103.7494,256.3623,0,U,68968,999,1183,.35927E-3,.11781E-3,0
STARLINK-36303,2026-099U,2026-07-16T21:08:27.629376,15.33558441,.0001368,53.1589,22.2862,102.2750,257.8406,0,U,68969,999,1183,.22891E-3,.7165E-4,0
STARLINK-37257,2026-099V,2026-07-16T21:17:51.894816,15.34401849,.0001272,53.1590,22.3406,90.8239,269.2909,0,U,68970,999,1183,.36123E-3,.11848E-3,0
STARLINK-37367,2026-099W,2026-07-16T21:14:50.084160,15.34404317,.0001232,53.1584,22.3358,79.8291,280.2851,0,U,68971,999,1183,.25652E-3,.8301E-4,0
STARLINK-37259,2026-099X,2026-07-16T21:11:48.295104,15.34406628,.0001258,53.1592,22.3244,91.5043,268.6103,0,U,68972,999,1183,.38559E-3,.12676E-3,0
STARLINK-37387,2026-099Y,2026-07-16T16:03:09.028800,15.34405972,.0001502,53.1581,23.1217,101.1845,258.9326,0,U,68973,999,1180,.39164E-3,.12881E-3,0
STARLINK-37362,2026-099Z,2026-07-16T22:42:34.193376,15.34409047,.0001283,53.1581,22.0055,88.1661,271.9489,0,U,68974,999,1184,.37539E-3,.12332E-3,0
STARLINK-36667,2026-099AA,2026-07-16T17:58:09.170400,15.34397842,.0001107,53.1586,22.8938,86.0519,274.0610,0,U,68975,999,1181,.21781E-3,.6989E-4,0
STARLINK-36735,2026-099AB,2026-07-16T19:28:55.053120,15.34398684,.0001147,53.1584,22.5737,91.7620,268.3514,0,U,68976,999,1182,.22501E-3,.7233E-4,0
STARLINK-37371,2026-099AC,2026-07-16T16:18:18.990144,15.34425095,.0001286,53.1593,23.1620,88.7981,271.3168,0,U,68977,999,1180,.73056E-3,.24407E-3,0
STARLINK-37293,2026-099AD,2026-07-16T16:15:16.003584,15.34399715,.0001158,53.1584,23.1553,102.8263,257.2869,0,U,68978,999,1180,.472E-3,.15604E-3,0
STARLINK-36248,2026-099AE,2026-07-16T16:12:14.309568,15.34404274,.0001157,53.1592,23.1492,87.2015,272.9120,0,U,68979,999,1180,.47189E-3,.15603E-3,0
PEARL-1B,2026-100A,2026-07-16T12:18:27.773280,14.90668327,.0008685,97.7331,94.2838,57.1636,303.0417,0,U,68980,999,1105,.10106E-3,.936E-5,0
IRIDE-MS2-HEO-7,2026-100B,2026-07-17T03:48:43.420032,14.91081384,.0006395,97.7326,94.9724,58.1674,302.0166,0,U,68981,999,1116,.61059E-4,.55E-5,0
IRIDE-MS2-HEO-10,2026-100C,2026-07-17T03:38:05.126208,14.91233413,.000571,97.7299,94.9602,65.7554,294.4260,0,U,68982,999,1116,.6684E-4,.61E-5,0
IRIDE-MS2-HEO-11,2026-100D,2026-07-17T03:27:48.224160,14.91146884,.0004734,97.7348,95.0083,72.4773,287.6962,0,U,68983,999,1116,.73452E-4,.674E-5,0
IRIDE-MS2-HEO-12,2026-100E,2026-07-17T03:41:05.466336,14.91098482,.0005598,97.7305,94.9623,66.0534,294.1270,0,U,68984,999,1116,.62508E-4,.565E-5,0
IRIDE-MS2-HEO-13,2026-100F,2026-07-17T03:00:22.649760,14.91671992,.0003131,97.7336,95.0228,52.8022,307.3482,0,U,68985,999,1116,.19724E-3,.1928E-4,0
IRIDE-MS2-HEO-14,2026-100G,2026-07-16T17:15:29.869344,14.91615929,.0003317,97.7327,94.6265,42.8744,317.2733,0,U,68986,999,1110,.96257E-4,.911E-5,0
IRIDE-MS2-HEO-15,2026-100H,2026-07-16T17:15:35.970912,14.91882514,.0002824,97.7304,94.6068,60.9770,299.1732,0,U,68987,999,1110,.8546E-4,.808E-5,0
FOREST-17 (TELPERION),2026-100J,2026-07-16T05:39:28.577952,14.91294853,.0008313,97.7309,94.0145,71.4449,288.7672,0,U,68988,999,1102,.50323E-4,.446E-5,0
CAS500-2 RIDESHARE OBJECT K,2026-100K,2026-07-16T16:46:43.311360,14.90966789,.0007283,97.7358,94.5230,48.4931,311.6912,0,U,68989,999,1109,.87908E-4,.813E-5,0
PEARL-1A,2026-100L,2026-07-17T00:41:49.289280,14.91060203,.0006886,97.7276,94.7939,70.4652,289.7310,0,U,68990,999,1114,.6117E-4,.551E-5,0
YAM-11,2026-100M,2026-07-16T17:24:56.401056,14.90580350,.000964,97.7423,94.4683,356.1454,3.9688,0,U,68991,999,1109,.89195E-4,.818E-5,0
YAM-16,2026-100N,2026-07-17T03:21:40.109184,14.91518410,.000464,97.7333,95.0039,57.9129,302.2540,0,U,68992,999,1116,.84921E-4,.795E-5,0
YAM-13,2026-100P,2026-07-16T22:47:38.069088,14.90413395,.0009439,97.7334,94.7916,352.8717,7.2365,0,U,68993,999,1113,.74441E-4,.671E-5,0
NULINK-2,2026-100Q,2026-07-17T03:40:37.865856,14.92643209,.0001176,97.7301,95.1103,128.1673,231.9653,0,U,68994,999,1117,.48243E-4,.441E-5,0
